[{"OBJECT_NAME":"STARLINK-36084","OBJECT_ID":"2025-280J","EPOCH":"2026-03-09T22:21:12.154752","MEAN_MOTION":14.98330561,"ECCENTRICITY":0.0002624,"INCLINATION":70.0029,"RA_OF_ASC_NODE":333.7835,"ARG_OF_PERICENTER":261.2566,"MEAN_ANOMALY":98.8296,"EPHEMERIS_TYPE":0,"CLASSIFICATION_TYPE":"U","NORAD_CAT_ID":66829,"ELEMENT_SET_NO":999,"REV_AT_EPOCH":1611,"BSTAR":0.00053936886,"MEAN_MOTION_DOT":6.349e-5,"MEAN_MOTION_DDOT":0},{"OBJECT_NAME":"CZ-6A DEB","OBJECT_ID":"2022-151HP","EPOCH":"2026-03-09T17:44:02.457312","MEAN_MOTION":14.86205638,"ECCENTRICITY":0.00516913,"INCLINATION":98.6505,"RA_OF_ASC_NODE":139.989,"ARG_OF_PERICENTER":207.0218,"MEAN_ANOMALY":152.8303,"EPHEMERIS_TYPE":0,"CLASSIFICATION_TYPE":"U","NORAD_CAT_ID":54487,"ELEMENT_SET_NO":999,"REV_AT_EPOCH":17416,"BSTAR":0.0036752124,"MEAN_MOTION_DOT":0.00033148,"MEAN_MOTION_DDOT":0}]
